[{"OBJECT_NAME":"SAUDISAT 5A","OBJECT_ID":"2018-102A","EPOCH":"2026-03-09T23:40:00.596928","MEAN_MOTION":15.26941021,"ECCENTRICITY":0.00113651,"INCLINATION":97.3185,"RA_OF_ASC_NODE":132.4981,"ARG_OF_PERICENTER":121.7113,"MEAN_ANOMALY":238.5235,"EPHEMERIS_TYPE":0,"CLASSIFICATION_TYPE":"U","NORAD_CAT_ID":43831,"ELEMENT_SET_NO":999,"REV_AT_EPOCH":40053,"BSTAR":0.00030305233,"MEAN_MOTION_DOT":7.96e-5,"MEAN_MOTION_DDOT":0},{"OBJECT_NAME":"STARLINK-32529","OBJECT_ID":"2024-224A","EPOCH":"2026-03-08T14:50:06.982368","MEAN_MOTION":15.27605204,"ECCENTRICITY":0.00015341,"INCLINATION":43.001,"RA_OF_ASC_NODE":164.3946,"ARG_OF_PERICENTER":275.7458,"MEAN_ANOMALY":84.3218,"EPHEMERIS_TYPE":0,"CLASSIFICATION_TYPE":"U","NORAD_CAT_ID":62139,"ELEMENT_SET_NO":999,"REV_AT_EPOCH":7225,"BSTAR":0.0015124473,"MEAN_MOTION_DOT":0.00041625,"MEAN_MOTION_DDOT":0}]
